start=new Date('2023-02-18T00:00:00.000Z').valueOf();
sats=[{"EPOCH":"2023-02-17T16:09:49.796064","OBJECT_TYPE":"PAYLOAD","ELEMENT_SET_NO":"999","PERIOD":"95.593","LAUNCH_DATE":"2021-03-14","MEAN_ANOMALY":"275.0930","REF_FRAME":"TEME","REV_AT_EPOCH":"10875","SITE":"AFETR","TLE_LINE1":"1 47874U 21021Q   23048.67349301  .00000726  00000-0  67617-4 0  9992","APOAPSIS":"547.898","PERIAPSIS":"546.589","BSTAR":"0.00006761700000","RA_OF_ASC_NODE":"186.6177","OBJECT_NAME":"STARLINK-2330","EPHEMERIS_TYPE":"0","NORAD_CAT_ID":"47874","SEMIMAJOR_AXIS":"6925.378","MEAN_ELEMENT_THEORY":"SGP4","CLASSIFICATION_TYPE":"U","ARG_OF_PERICENTER":"85.0167","MEAN_MOTION_DOT":"0.00000726","OBJECT_ID":"2021-021Q","INCLINATION":"53.0538","DECAY_DATE":null,"GP_ID":"225835709","RCS_SIZE":"LARGE","COUNTRY_CODE":"US","TLE_LINE2":"2 47874  53.0538 186.6177 0000945  85.0167 275.0930 15.06390358108754","ECCENTRICITY":"0.00009450","MEAN_MOTION_DDOT":"0.0000000000000","TIME_SYSTEM":"UTC","CENTER_NAME":"EARTH","MEAN_MOTION":"15.06390358","FILE":"3804075"},{"MEAN_ELEMENT_THEORY":"SGP4","SEMIMAJOR_AXIS":"6925.347","ARG_OF_PERICENTER":"82.3885","CLASSIFICATION_TYPE":"U","MEAN_MOTION_DOT":"0.00013983","INCLINATION":"53.0516","OBJECT_ID":"2021-021R","DECAY_DATE":null,"GP_ID":"225834457","TLE_LINE2":"2 47875  53.0516 240.7989 0001219  82.3885 277.7242 15.06400587108061","ECCENTRICITY":"0.00012190","MEAN_MOTION_DDOT":"0.0000000000000","COUNTRY_CODE":"US","RCS_SIZE":"LARGE","TIME_SYSTEM":"UTC","CENTER_NAME":"EARTH","FILE":"3804075","MEAN_MOTION":"15.06400587","EPOCH":"2023-02-17T20:30:35.727552","OBJECT_TYPE":"PAYLOAD","ELEMENT_SET_NO":"999","LAUNCH_DATE":"2021-03-14","PERIOD":"95.592","MEAN_ANOMALY":"277.7242","SITE":"AFETR","TLE_LINE1":"1 47875U 21021R   23048.85458018  .00013983  00000-0  95573-3 0  9999","REF_FRAME":"TEME","REV_AT_EPOCH":"10806","APOAPSIS":"548.056","PERIAPSIS":"546.368","RA_OF_ASC_NODE":"240.7989","BSTAR":"0.00095573000000","NORAD_CAT_ID":"47875","OBJECT_NAME":"STARLINK-2331","EPHEMERIS_TYPE":"0"},{"EPHEMERIS_TYPE":"0","OBJECT_NAME":"STARLINK-2332","NORAD_CAT_ID":"47876","BSTAR":"0.00049325000000","RA_OF_ASC_NODE":"240.5479","PERIAPSIS":"546.585","APOAPSIS":"547.847","REV_AT_EPOCH":"10802","REF_FRAME":"TEME","TLE_LINE1":"1 47876U 21021S   23048.90985520  .00007073  00000-0  49325-3 0  9996","SITE":"AFETR","MEAN_ANOMALY":"278.0820","PERIOD":"95.592","LAUNCH_DATE":"2021-03-14","ELEMENT_SET_NO":"999","OBJECT_TYPE":"PAYLOAD","EPOCH":"2023-02-17T21:50:11.489280","MEAN_MOTION":"15.06399106","FILE":"3804075","CENTER_NAME":"EARTH","TIME_SYSTEM":"UTC","RCS_SIZE":"LARGE","COUNTRY_CODE":"US","MEAN_MOTION_DDOT":"0.0000000000000","ECCENTRICITY":"0.00009110","TLE_LINE2":"2 47876  53.0524 240.5479 0000911  82.0272 278.0820 15.06399106108024","GP_ID":"225835207","DECAY_DATE":null,"INCLINATION":"53.0524","OBJECT_ID":"2021-021S","MEAN_MOTION_DOT":"0.00007073","CLASSIFICATION_TYPE":"U","ARG_OF_PERICENTER":"82.0272","MEAN_ELEMENT_THEORY":"SGP4","SEMIMAJOR_AXIS":"6925.351"},{"DECAY_DATE":null,"GP_ID":"225835459","MEAN_MOTION_DDOT":"0.0000000000000","ECCENTRICITY":"0.00007760","TLE_LINE2":"2 47877  53.0519 241.0818 0000776  76.5278 283.5798 15.06390421107996","RCS_SIZE":"LARGE","COUNTRY_CODE":"US","CENTER_NAME":"EARTH","TIME_SYSTEM":"UTC","FILE":"3804075","MEAN_MOTION":"15.06390421","MEAN_ELEMENT_THEORY":"SGP4","SEMIMAJOR_AXIS":"6925.378","ARG_OF_PERICENTER":"76.5278","CLASSIFICATION_TYPE":"U","MEAN_MOTION_DOT":"-0.00000920","INCLINATION":"53.0519","OBJECT_ID":"2021-021T","PERIAPSIS":"546.706","APOAPSIS":"547.780","RA_OF_ASC_NODE":"241.0818","BSTAR":"-0.00004292100000","NORAD_CAT_ID":"47877","EPHEMERIS_TYPE":"0","OBJECT_NAME":"STARLINK-2333","ELEMENT_SET_NO":"999","OBJECT_TYPE":"PAYLOAD","EPOCH":"2023-02-17T19:00:20.719008","LAUNCH_DATE":"2021-03-14","PERIOD":"95.593","MEAN_ANOMALY":"283.5798","TLE_LINE1":"1 47877U 21021T   23048.79190647 -.00000920  00000-0 -42921-4 0  9994","SITE":"AFETR","REF_FRAME":"TEME","REV_AT_EPOCH":"10799"},{"ELEMENT_SET_NO":"999","EPOCH":"2023-02-17T19:16:16.217472","OBJECT_TYPE":"PAYLOAD","LAUNCH_DATE":"2021-03-14","PERIOD":"95.593","MEAN_ANOMALY":"254.2341","TLE_LINE1":"1 47878U 21021U   23048.80296548 -.00000609  00000-0 -21988-4 0  9998","SITE":"AFETR","REF_FRAME":"TEME","REV_AT_EPOCH":"10779","PERIAPSIS":"546.531","APOAPSIS":"547.932","RA_OF_ASC_NODE":"241.0301","BSTAR":"-0.00002198800000","NORAD_CAT_ID":"47878","EPHEMERIS_TYPE":"0","OBJECT_NAME":"STARLINK-2335","SEMIMAJOR_AXIS":"6925.366","MEAN_ELEMENT_THEORY":"SGP4","ARG_OF_PERICENTER":"105.8759","CLASSIFICATION_TYPE":"U","MEAN_MOTION_DOT":"-0.00000609","OBJECT_ID":"2021-021U","INCLINATION":"53.0518","DECAY_DATE":null,"GP_ID":"225836209","MEAN_MOTION_DDOT":"0.0000000000000","ECCENTRICITY":"0.00010110","TLE_LINE2":"2 47878  53.0518 241.0301 0001011 105.8759 254.2341 15.06394187107796","COUNTRY_CODE":"US","RCS_SIZE":"LARGE","CENTER_NAME":"EARTH","TIME_SYSTEM":"UTC","FILE":"3804075","MEAN_MOTION":"15.06394187"},{"MEAN_ANOMALY":"262.2812","REF_FRAME":"TEME","REV_AT_EPOCH":"10797","TLE_LINE1":"1 47879U 21021V   23048.86608128  .00010683  00000-0  73538-3 0  9994","SITE":"AFETR","ELEMENT_SET_NO":"999","EPOCH":"2023-02-17T20:47:09.422592","OBJECT_TYPE":"PAYLOAD","PERIOD":"95.593","LAUNCH_DATE":"2021-03-14","BSTAR":"0.00073538000000","RA_OF_ASC_NODE":"255.7489","EPHEMERIS_TYPE":"0","OBJECT_NAME":"STARLINK-2336","NORAD_CAT_ID":"47879","PERIAPSIS":"546.552","APOAPSIS":"547.993","MEAN_MOTION_DOT":"0.00010683","INCLINATION":"53.0522","OBJECT_ID":"2021-021V","SEMIMAJOR_AXIS":"6925.407","MEAN_ELEMENT_THEORY":"SGP4","CLASSIFICATION_TYPE":"U","ARG_OF_PERICENTER":"97.8295","CENTER_NAME":"EARTH","TIME_SYSTEM":"UTC","MEAN_MOTION":"15.06380778","FILE":"3804075","DECAY_DATE":null,"GP_ID":"225834957","RCS_SIZE":"LARGE","COUNTRY_CODE":"US","MEAN_MOTION_DDOT":"0.0000000000000","ECCENTRICITY":"0.00010400","TLE_LINE2":"2 47879  53.0522 255.7489 0001040  97.8295 262.2812 15.06380778107971"},{"MEAN_MOTION":"15.06395470","FILE":"3804075","CENTER_NAME":"EARTH","TIME_SYSTEM":"UTC","RCS_SIZE":"LARGE","COUNTRY_CODE":"US","ECCENTRICITY":"0.00011490","MEAN_MOTION_DDOT":"0.0000000000000","TLE_LINE2":"2 47880  53.0513 250.8691 0001149  91.8923 268.2197 15.06395470107861","GP_ID":"225834708","DECAY_DATE":null,"INCLINATION":"53.0513","OBJECT_ID":"2021-021W","MEAN_MOTION_DOT":"0.00000138","CLASSIFICATION_TYPE":"U","ARG_OF_PERICENTER":"91.8923","SEMIMAJOR_AXIS":"6925.362","MEAN_ELEMENT_THEORY":"SGP4","EPHEMERIS_TYPE":"0","OBJECT_NAME":"STARLINK-2337","NORAD_CAT_ID":"47880","BSTAR":"0.00002816900000","RA_OF_ASC_NODE":"250.8691","PERIAPSIS":"546.432","APOAPSIS":"548.023","REV_AT_EPOCH":"10786","REF_FRAME":"TEME","TLE_LINE1":"1 47880U 21021W   23048.83890377  .00000138  00000-0  28169-4 0  9997","SITE":"AFETR","MEAN_ANOMALY":"268.2197","PERIOD":"95.592","LAUNCH_DATE":"2021-03-14","ELEMENT_SET_NO":"999","EPOCH":"2023-02-17T20:08:01.285728","OBJECT_TYPE":"PAYLOAD"},{"CLASSIFICATION_TYPE":"U","ARG_OF_PERICENTER":"113.1732","SEMIMAJOR_AXIS":"6925.377","MEAN_ELEMENT_THEORY":"SGP4","OBJECT_ID":"2021-021X","INCLINATION":"53.0556","MEAN_MOTION_DOT":"-0.00000002","COUNTRY_CODE":"US","RCS_SIZE":"LARGE","TLE_LINE2":"2 47881  53.0556 250.7406 0001136 113.1732 246.9377 15.06390732107830","ECCENTRICITY":"0.00011360","MEAN_MOTION_DDOT":"0.0000000000000","GP_ID":"225835959","DECAY_DATE":null,"MEAN_MOTION":"15.06390732","FILE":"3804075","TIME_SYSTEM":"UTC","CENTER_NAME":"EARTH","PERIOD":"95.593","LAUNCH_DATE":"2021-03-14","OBJECT_TYPE":"PAYLOAD","EPOCH":"2023-02-17T20:45:10.692576","ELEMENT_SET_NO":"999","REF_FRAME":"TEME","REV_AT_EPOCH":"10783","SITE":"AFETR","TLE_LINE1":"1 47881U 21021X   23048.86470709 -.00000002  00000-0  18759-4 0  9999","MEAN_ANOMALY":"246.9377","APOAPSIS":"548.029","PERIAPSIS":"546.455","OBJECT_NAME":"STARLINK-2339","EPHEMERIS_TYPE":"0","NORAD_CAT_ID":"47881","BSTAR":"0.00001875900000","RA_OF_ASC_NODE":"250.7406"},{"NORAD_CAT_ID":"47882","OBJECT_NAME":"STARLINK-2340","EPHEMERIS_TYPE":"0","RA_OF_ASC_NODE":"240.8642","BSTAR":"-0.00015971000000","APOAPSIS":"548.018","PERIAPSIS":"546.411","SITE":"AFETR","TLE_LINE1":"1 47882U 21021Y   23048.83982003 -.00002659  00000-0 -15971-3 0  9995","REF_FRAME":"TEME","REV_AT_EPOCH":"10753","MEAN_ANOMALY":"266.1626","LAUNCH_DATE":"2021-03-14","PERIOD":"95.592","OBJECT_TYPE":"PAYLOAD","EPOCH":"2023-02-17T20:09:20.450592","ELEMENT_SET_NO":"999","FILE":"3803433","MEAN_MOTION":"15.06399662","TIME_SYSTEM":"UTC","CENTER_NAME":"EARTH","TLE_LINE2":"2 47882  53.0535 240.8642 0001160  93.9496 266.1626 15.06399662107538","ECCENTRICITY":"0.00011600","MEAN_MOTION_DDOT":"0.0000000000000","COUNTRY_CODE":"US","RCS_SIZE":"LARGE","DECAY_DATE":null,"GP_ID":"225801425","OBJECT_ID":"2021-021Y","INCLINATION":"53.0535","MEAN_MOTION_DOT":"-0.00002659","ARG_OF_PERICENTER":"93.9496","CLASSIFICATION_TYPE":"U","SEMIMAJOR_AXIS":"6925.350","MEAN_ELEMENT_THEORY":"SGP4"},{"ELEMENT_SET_NO":"999","EPOCH":"2023-02-17T19:28:52.372128","OBJECT_TYPE":"PAYLOAD","PERIOD":"95.592","LAUNCH_DATE":"2021-03-14","MEAN_ANOMALY":"277.1473","REF_FRAME":"TEME","REV_AT_EPOCH":"10810","TLE_LINE1":"1 47883U 21021Z   23048.81171727 -.00000042  00000-0  16056-4 0  9996","SITE":"AFETR","PERIAPSIS":"546.442","APOAPSIS":"547.972","BSTAR":"0.00001605600000","RA_OF_ASC_NODE":"245.9933","EPHEMERIS_TYPE":"0","OBJECT_NAME":"STARLINK-2342","NORAD_CAT_ID":"47883","SEMIMAJOR_AXIS":"6925.342","MEAN_ELEMENT_THEORY":"SGP4","CLASSIFICATION_TYPE":"U","ARG_OF_PERICENTER":"82.9642","MEAN_MOTION_DOT":"-0.00000042","OBJECT_ID":"2021-021Z","INCLINATION":"53.0497","DECAY_DATE":null,"GP_ID":"225834458","RCS_SIZE":"LARGE","COUNTRY_CODE":"US","MEAN_MOTION_DDOT":"0.0000000000000","ECCENTRICITY":"0.00011040","TLE_LINE2":"2 47883  53.0497 245.9933 0001104  82.9642 277.1473 15.06402133108108","CENTER_NAME":"EARTH","TIME_SYSTEM":"UTC","MEAN_MOTION":"15.06402133","FILE":"3804075"}];
